NORAD_CAT_ID,OBJECT_NAME,OBJECT_TYPE,EPOCH,MEAN_MOTION,ECCENTRICITY,INCLINATION,RA_OF_ASC_NODE,ARG_OF_PERICENTER,MEAN_ANOMALY,BSTAR,MEAN_MOTION_DOT,MEAN_MOTION_DDOT,TLE_LINE0,TLE_LINE1,TLE_LINE2,SEMIMAJOR_AXIS,PERIOD,APOGEE,PERIGEE,DECAYED
52374.0,STARLINK-3762,PAYLOAD,2022-07-13 06:00:00,15.57900178,0.0001093,53.2174,68.6194,61.9822,288.9249,-0.015399,-0.01064598,0.0,0 STARLINK-3762,1 52374U 22045AV  22194.25001157 -.01064598  00000-0 -15399-1 0  9996,2 52374  53.2174  68.6194 0001093  61.9822 288.9249 15.57900178 14257,6771.871999999999,92.432,394.477,392.997,0.0
52374.0,STARLINK-3762,PAYLOAD,2022-07-13 14:00:01,15.57138166,0.0001238,53.2175,67.0074,55.2854,5.7007,-0.015795,-0.01061364,0.0,0 STARLINK-3762,1 52374U 22045AV  22194.58334491 -.01061364  00000-0 -15795-1 0  9990,2 52374  53.2175  67.0074 0001238  55.2854   5.7007 15.57138166  1309,6774.081,92.477,396.785,395.108,0.0
52374.0,STARLINK-3762,PAYLOAD,2022-07-13 22:00:00,15.56379546,0.0001514,53.2175,65.4011,49.8238,80.3249,-0.016256,-0.01061727,0.0,0 STARLINK-3762,1 52374U 22045AV  22194.91667824 -.01061727  00000-0 -16256-1 0  9992,2 52374  53.2175  65.4011 0001514  49.8238  80.3249 15.56379546  1309,6776.281999999997,92.522,399.173,397.121,0.0
52374.0,STARLINK-3762,PAYLOAD,2022-07-14 08:00:01,15.55432122,0.0001116,53.2175,63.392,75.1851,230.1357,-0.016902,-0.01065141,0.0,0 STARLINK-3762,1 52374U 22045AV  22195.33334491 -.01065141  00000-0 -16902-1 0  9992,2 52374  53.2175  63.3920 0001116  75.1851 230.1357 15.55432122 14416,6779.034000000002,92.579,401.655,400.142,0.0
52374.0,STARLINK-3762,PAYLOAD,2022-07-14 14:00:01,15.54859538,0.0001289,53.2175,62.1877,63.0223,202.7186,-0.0171699999999999,-0.01059876,0.0,0 STARLINK-3762,1 52374U 22045AV  22195.58334491 -.01059876  00000-0 -17170-1 0  9995,2 52374  53.2175  62.1877 0001289  63.0223 202.7186 15.54859538  1306,6780.698,92.613,403.437,401.689,0.0
52374.0,STARLINK-3762,PAYLOAD,2022-07-14 22:00:00,15.54101889,0.0001296999999999,53.2174,60.5868,52.4069,279.7584,-0.01771,-0.010628,0.0,0 STARLINK-3762,1 52374U 22045AV  22195.91667824 -.01062800  00000-0 -17710-1 0  9992,2 52374  53.2174  60.5868 0001297  52.4069 279.7584 15.54101889  1301,6782.901999999999,92.658,405.646,403.887,0.0
52374.0,STARLINK-3762,PAYLOAD,2022-07-15 06:00:00,15.533416099999998,0.0001129,53.2173,58.9851,62.5205,335.1592,-0.018179,-0.01061074,0.0,0 STARLINK-3762,1 52374U 22045AV  22196.25001157 -.01061074  00000-0 -18179-1 0  9993,2 52374  53.2173  58.9851 0001129  62.5205 335.1592 15.53341610 14566,6785.115,92.703,407.746,406.214,0.0
52374.0,STARLINK-3762,PAYLOAD,2022-07-15 14:00:01,15.52581132,0.0001329,53.2174,57.3844,57.5249,44.7568,-0.018655,-0.01059318,0.0,0 STARLINK-3762,1 52374U 22045AV  22196.58334491 -.01059318  00000-0 -18655-1 0  9996,2 52374  53.2174  57.3844 0001329  57.5249  44.7568 15.52581132  1304,6787.33,92.749,410.097,408.293,0.0
52374.0,STARLINK-3762,PAYLOAD,2022-07-15 22:00:00,15.51821829,0.0001438,53.2173,55.789,58.1154,107.8533,-0.019173,-0.01059219,0.0,0 STARLINK-3762,1 52374U 22045AV  22196.91667824 -.01059219  00000-0 -19173-1 0  9998,2 52374  53.2173  55.7890 0001438  58.1154 107.8533 15.51821829  1301,6789.544,92.794,412.385,410.4330000000001,0.0
52374.0,STARLINK-3762,PAYLOAD,2022-07-16 06:00:00,15.51053897,0.0001196,53.2173,54.1924,80.9734,147.7736,-0.019357,-0.01041821,0.0,0 STARLINK-3762,1 52374U 22045AV  22197.25001157 -.01041821  00000-0 -19357-1 0  9991,2 52374  53.2173  54.1924 0001196  80.9734 147.7736 15.51053897 14719,6791.785,92.84,414.462,412.837,0.0
52374.0,STARLINK-3762,PAYLOAD,2022-07-16 14:00:01,15.50183441,0.0001202,53.2175,52.5967,69.2303,221.3923,-0.0072617,-0.00396576,0.0,0 STARLINK-3762,1 52374U 22045AV  22197.58334491 -.00396576  00000-0 -72617-2 0  9995,2 52374  53.2175  52.5967 0001202  69.2303 221.3923 15.50183441 14760,6794.3269999999975,92.892,417.009,415.375,0.0
52374.0,STARLINK-3762,PAYLOAD,2022-07-16 22:00:00,15.498870000000002,0.0001466,53.2175,51.0055,53.7708,297.9461,-5.2345e-05,-3.421e-05,0.0,0 STARLINK-3762,1 52374U 22045AV  22197.91667824 -.00003421  00000-0 -52345-4 0  9993,2 52374  53.2175  51.0055 0001466  53.7708 297.9461 15.49887000 14824,6795.193,92.91,418.055,416.062,0.0
52374.0,STARLINK-3762,PAYLOAD,2022-07-17 14:00:01,15.49871308,0.0001676999999999,53.2159,47.8107,74.3891,38.9872,0.00048148,0.00026956,0.0,0 STARLINK-3762,1 52374U 22045AV  22198.58334491  .00026956  00000-0  48148-3 0  9999,2 52374  53.2159  47.8107 0001677  74.3891  38.9872 15.49871308 14927,6795.239000000001,92.911,418.244,415.965,0.0
52374.0,STARLINK-3762,PAYLOAD,2022-07-17 22:00:00,15.49805248,0.0001676999999999,53.2167,46.2236,66.473,107.8173,0.0070741,0.00422292,0.0,0 STARLINK-3762,1 52374U 22045AV  22198.91667824  .00422292  00000-0  70741-2 0  9991,2 52374  53.2167  46.2236 0001677  66.4730 107.8173 15.49805248 14971,6795.432,92.915,418.437,416.158,0.0
52374.0,STARLINK-3762,PAYLOAD,2022-07-18 06:00:00,15.49903542,0.0001654,53.2151,44.6249,68.2704,166.8997,-0.00048525,-0.00027913,0.0,0 STARLINK-3762,1 52374U 22045AV  22199.25001157 -.00027913  00000-0 -48525-3 0  9999,2 52374  53.2151  44.6249 0001654  68.2704 166.8997 15.49903542 15028,6795.145,92.909,418.134,415.886,0.0
52374.0,STARLINK-3762,PAYLOAD,2022-07-18 14:00:01,15.4989614,0.0001608,53.2154,43.0309,75.4673,220.622,0.00045846,0.00025664,0.0,0 STARLINK-3762,1 52374U 22045AV  22199.58334491  .00025664  00000-0  45846-3 0  9997,2 52374  53.2154  43.0309 0001608  75.4673 220.6220 15.49896140  1304,6795.167,92.909,418.124,415.939,0.0
52374.0,STARLINK-3762,PAYLOAD,2022-07-18 22:00:00,15.49897957,0.0001706999999999,53.2153,41.4398,66.8198,290.2094,0.00044027,0.00024626,0.0,0 STARLINK-3762,1 52374U 22045AV  22199.91667824  .00024626  00000-0  44027-3 0  9990,2 52374  53.2153  41.4398 0001707  66.8198 290.2094 15.49897957 15134,6795.161,92.909,418.186,415.866,0.0
52374.0,STARLINK-3762,PAYLOAD,2022-07-19 14:00:01,15.50102217,0.0001512,53.217,38.2584,63.5665,55.3625,-0.021317,-0.01102632,0.0,0 STARLINK-3762,1 52374U 22045AV  22200.58334491 -.01102632  00000-0 -21317-1 0  9999,2 52374  53.2170  38.2584 0001512  63.5665  55.3625 15.50102217 15232,6794.564,92.897,417.457,415.402,0.0
52374.0,STARLINK-3762,PAYLOAD,2022-07-19 22:00:00,15.49306493,0.0001406,53.2175,36.6707,65.5386,114.0749,-0.020924,-0.01056633,0.0,0 STARLINK-3762,1 52374U 22045AV  22200.91667824 -.01056633  00000-0 -20924-1 0  9997,2 52374  53.2175  36.6707 0001406  65.5386 114.0749 15.49306493  1303,6796.891,92.945,419.711,417.8,0.0
52374.0,STARLINK-3762,PAYLOAD,2022-07-20 14:00:01,15.47788408,0.0001177,53.2177,33.4914,83.4507,214.7594,-0.022095,-0.01057429,0.0,0 STARLINK-3762,1 52374U 22045AV  22201.58334491 -.01057429  00000-0 -22095-1 0  9997,2 52374  53.2177  33.4914 0001177  83.4507 214.7594 15.47788408  1303,6801.334,93.036,424.0,422.399,0.0
52374.0,STARLINK-3762,PAYLOAD,2022-07-20 22:00:01,15.4702949,0.0001199999999999,53.2177,31.9073,62.2466,293.9559,-0.02273,-0.01059144,0.0,0 STARLINK-3762,1 52374U 22045AV  22201.91668981 -.01059144  00000-0 -22730-1 0  9990,2 52374  53.2177  31.9073 0001200  62.2466 293.9559 15.47029490  1307,6803.558000000001,93.082,426.24,424.607,0.0
52374.0,STARLINK-3762,PAYLOAD,2022-07-21 08:00:01,15.46077277,0.0001357,53.2175,29.9255,61.0733,96.1948,-0.023371,-0.01054088,0.0,0 STARLINK-3762,1 52374U 22045AV  22202.33334491 -.01054088  00000-0 -23371-1 0  9997,2 52374  53.2175  29.9255 0001357  61.0733  96.1948 15.46077277 15508,6806.352,93.139,429.14,427.293,0.0
52374.0,STARLINK-3762,PAYLOAD,2022-07-21 14:00:01,15.45508709,0.0001398,53.2178,28.739,55.4177,53.9065,-0.023878,-0.01055817,0.0,0 STARLINK-3762,1 52374U 22045AV  22202.58335648 -.01055817  00000-0 -23878-1 0  9992,2 52374  53.2178  28.7390 0001398  55.4177  53.9065 15.45508709  1304,6808.021,93.173,430.838,428.934,0.0
52374.0,STARLINK-3762,PAYLOAD,2022-07-21 22:00:00,15.44747498,0.0001537,53.2176,27.1603,52.9813,111.469,-0.024432,-0.01052718,0.0,0 STARLINK-3762,1 52374U 22045AV  22202.91667824 -.01052718  00000-0 -24432-1 0  9997,2 52374  53.2176  27.1603 0001537  52.9813 111.4690 15.44747498  1309,6810.257,93.219,433.169,431.075,0.0
52374.0,STARLINK-3762,PAYLOAD,2022-07-22 06:00:00,15.43991319,0.0001418,53.2176,25.58,59.5153,159.2131,-0.025211,-0.01057948,0.0,0 STARLINK-3762,1 52374U 22045AV  22203.25001157 -.01057948  00000-0 -25211-1 0  9992,2 52374  53.2176  25.5800 0001418  59.5153 159.2131 15.43991319  1300,6812.48,93.265,435.312,433.379,0.0
52374.0,STARLINK-3762,PAYLOAD,2022-07-22 22:00:00,15.42470513,0.0001365,53.2175,22.4297,51.1726,273.3739,-0.026455,-0.01069331,0.0,0 STARLINK-3762,1 52374U 22045AV  22203.91667824 -.01069331  00000-0 -26455-1 0  9994,2 52374  53.2175  22.4297 0001365  51.1726 273.3739 15.42470513  1309,6816.958000000001,93.357,439.753,437.892,0.0
52374.0,STARLINK-3762,PAYLOAD,2022-07-23 08:00:01,15.4152021,0.0001395,53.2173,20.4614,53.9675,64.8637,-0.027286,-0.01068304,0.0,0 STARLINK-3762,1 52374U 22045AV  22204.33334491 -.01068304  00000-0 -27286-1 0  9994,2 52374  53.2173  20.4614 0001395  53.9675  64.8637 15.41520210 15814,6819.759,93.414,442.575,440.673,0.0
52374.0,STARLINK-3762,PAYLOAD,2022-07-23 14:00:01,15.40952894,0.0001337,53.2175,19.2834,54.3875,12.3919,-0.0279089999999999,-0.01071819,0.0,0 STARLINK-3762,1 52374U 22045AV  22204.58335648 -.01071819  00000-0 -27909-1 0  9993,2 52374  53.2175  19.2834 0001337  54.3875  12.3919 15.40952894  1305,6821.433000000001,93.449,444.21,442.386,0.0
52374.0,STARLINK-3762,PAYLOAD,2022-07-23 22:00:00,15.40188681,0.000145,53.2174,17.7154,52.887,63.544,-0.028397,-0.01063849,0.0,0 STARLINK-3762,1 52374U 22045AV  22204.91667824 -.01063849  00000-0 -28397-1 0  9990,2 52374  53.2174  17.7154 0001450  52.8870  63.5440 15.40188681  1308,6823.689,93.495,446.543,444.565,0.0
